[{"OBJECT_NAME":"SPAWAR-CAL-O","OBJECT_ID":"2018-099J","EPOCH":"2026-03-09T17:45:15.080832","MEAN_MOTION":15.31356755,"ECCENTRICITY":0.00072392,"INCLINATION":97.4452,"RA_OF_ASC_NODE":132.0993,"ARG_OF_PERICENTER":285.067,"MEAN_ANOMALY":74.977,"EPHEMERIS_TYPE":0,"CLASSIFICATION_TYPE":"U","NORAD_CAT_ID":43766,"ELEMENT_SET_NO":999,"REV_AT_EPOCH":39828,"BSTAR":0.00069663212,"MEAN_MOTION_DOT":0.00021069,"MEAN_MOTION_DDOT":0},{"OBJECT_NAME":"STARLINK-32492","OBJECT_ID":"2024-216U","EPOCH":"2026-03-09T22:34:49.179072","MEAN_MOTION":15.27609316,"ECCENTRICITY":0.00010285,"INCLINATION":42.9985,"RA_OF_ASC_NODE":261.8593,"ARG_OF_PERICENTER":328.4412,"MEAN_ANOMALY":31.6378,"EPHEMERIS_TYPE":0,"CLASSIFICATION_TYPE":"U","NORAD_CAT_ID":62050,"ELEMENT_SET_NO":999,"REV_AT_EPOCH":7383,"BSTAR":0.0014435337,"MEAN_MOTION_DOT":0.0003971,"MEAN_MOTION_DDOT":0}]
